STARLINK-1354_new
1 15562C 20025AH  21326.16856591  .00005581  00000-0  37388-3 0  3261
2 15562  53.0529 287.9876 0002031  67.7554   4.0574 15.06399218    10
STARLINK-1354_old
1 25562C 20025AH  21325.10294036 -.00000439  00000-0 -29423-4 0  3254
2 25562  53.0530 292.7713 0001939  67.7608 341.9358 15.06393498    19
